STARLINK-35762          
1 67172U 25303K   26015.91668981  .00002214  00000+0  60272-4 0  9997
2 67172  42.9988 252.2467 0001324 261.8663 107.7167 15.40688952  5669
STARLINK-36183          
1 67173U 25303L   26015.91668981  .00004066  00000+0  10458-3 0  9995
2 67173  42.9991 252.1862 0001407 262.6404 131.8202 15.40688277  5967
STARLINK-36210          
1 67174U 25303M   26015.91668981  .00004999  00000+0  12690-3 0  9991
2 67174  42.9992 252.1559 0001356 268.2796 138.6236 15.40689040  5962
STARLINK-35756          
1 67175U 25303N   26015.91668981  .00007278  00000+0  18135-3 0  9995
2 67175  42.9993 252.0959 0002022 254.2940 177.4639 15.40697851  5714
STARLINK-35785          
1 67176U 25303P   26015.91668981  .00007225  00000+0  18006-3 0  9995
2 67176  42.9993 252.1261 0001645 273.7390 145.5805 15.40701672  5669
STARLINK-35853          
1 67177U 25303Q   26015.91668981  .00005589  00000+0  14094-3 0  9990
2 67177  42.9991 252.0658 0001761 250.3967 193.8004 15.40701286  5711
STARLINK-35878          
1 67178U 25303R   26015.91668981  .00005799  00000+0  14600-3 0  9997
2 67178  42.9990 252.0048 0001437 256.0173 213.0765 15.40695563  5669
STARLINK-35793          
1 67179U 25303S   26015.91668981  .00009893  00000+0  24365-3 0  9996
2 67179  42.9992 252.0357 0001023 248.6561 207.9493 15.40717878  5668
STARLINK-35876          
1 67180U 25303T   26015.91668981  .00016864  00000+0  41011-3 0  9991
2 67180  42.9989 251.9754 0002411 283.1918 198.2321 15.40696253  5718
STARLINK-35766          
1 67181U 25303U   26015.91668981  .00008615  00000+0  21335-3 0  9994
2 67181  42.9986 251.9447 0001362 271.9697 222.0205 15.40687117  5668
STARLINK-35782          
1 67182U 25303V   26015.91668981  .00014090  00000+0  34414-3 0  9991
2 67182  42.9987 251.9142 0001784 266.7554 239.6766 15.40681237  5667
STARLINK-35719          
1 67183U 25303W   26015.91668981 -.00991448  00000+0 -25475-1 0  9990
2 67183  42.9993 251.8552 0001573 257.9470 273.0405 15.41356081  5663
