CCSDS_OMM_VERS = 2.0
CREATION_DATE  = 
ORIGINATOR     = 

OBJECT_NAME    = STARLINK-35762
OBJECT_ID      = 2025-303K
CENTER_NAME    = EARTH
REF_FRAME      = TEME
TIME_SYSTEM    = UTC
MEAN_ELEMENT_THEORY = SGP/SGP4

EPOCH          = 2026-01-15T22:00:01.999584
MEAN_MOTION    = 15.40688952
ECCENTRICITY   = .00013248
INCLINATION    = 42.9988
RA_OF_ASC_NODE = 252.2467
ARG_OF_PERICENTER = 261.8663
MEAN_ANOMALY   = 107.7167

EPHEMERIS_TYPE = 0
CLASSIFICATION_TYPE = U
NORAD_CAT_ID   = 67172
ELEMENT_SET_NO = 999
REV_AT_EPOCH   = 566
BSTAR          = .60271979E-4
MEAN_MOTION_DOT = .2214E-4
MEAN_MOTION_DDOT = 0

CCSDS_OMM_VERS = 2.0
CREATION_DATE  = 
ORIGINATOR     = 

OBJECT_NAME    = STARLINK-36183
OBJECT_ID      = 2025-303L
CENTER_NAME    = EARTH
REF_FRAME      = TEME
TIME_SYSTEM    = UTC
MEAN_ELEMENT_THEORY = SGP/SGP4

EPOCH          = 2026-01-15T22:00:01.999584
MEAN_MOTION    = 15.40688277
ECCENTRICITY   = .00014075
INCLINATION    = 42.9991
RA_OF_ASC_NODE = 252.1862
ARG_OF_PERICENTER = 262.6404
MEAN_ANOMALY   = 131.8202

EPHEMERIS_TYPE = 0
CLASSIFICATION_TYPE = U
NORAD_CAT_ID   = 67173
ELEMENT_SET_NO = 999
REV_AT_EPOCH   = 596
BSTAR          = .10458088E-3
MEAN_MOTION_DOT = .4066E-4
MEAN_MOTION_DDOT = 0

CCSDS_OMM_VERS = 2.0
CREATION_DATE  = 
ORIGINATOR     = 

OBJECT_NAME    = STARLINK-36210
OBJECT_ID      = 2025-303M
CENTER_NAME    = EARTH
REF_FRAME      = TEME
TIME_SYSTEM    = UTC
MEAN_ELEMENT_THEORY = SGP/SGP4

EPOCH          = 2026-01-15T22:00:01.999584
MEAN_MOTION    = 15.40689040
ECCENTRICITY   = .00013562
INCLINATION    = 42.9992
RA_OF_ASC_NODE = 252.1559
ARG_OF_PERICENTER = 268.2796
MEAN_ANOMALY   = 138.6236

EPHEMERIS_TYPE = 0
CLASSIFICATION_TYPE = U
NORAD_CAT_ID   = 67174
ELEMENT_SET_NO = 999
REV_AT_EPOCH   = 596
BSTAR          = .12690105E-3
MEAN_MOTION_DOT = .4999E-4
MEAN_MOTION_DDOT = 0

CCSDS_OMM_VERS = 2.0
CREATION_DATE  = 
ORIGINATOR     = 

OBJECT_NAME    = STARLINK-35756
OBJECT_ID      = 2025-303N
CENTER_NAME    = EARTH
REF_FRAME      = TEME
TIME_SYSTEM    = UTC
MEAN_ELEMENT_THEORY = SGP/SGP4

EPOCH          = 2026-01-15T22:00:01.999584
MEAN_MOTION    = 15.40697851
ECCENTRICITY   = .00020227
INCLINATION    = 42.9993
RA_OF_ASC_NODE = 252.0959
ARG_OF_PERICENTER = 254.2940
MEAN_ANOMALY   = 177.4639

EPHEMERIS_TYPE = 0
CLASSIFICATION_TYPE = U
NORAD_CAT_ID   = 67175
ELEMENT_SET_NO = 999
REV_AT_EPOCH   = 571
BSTAR          = .18134541E-3
MEAN_MOTION_DOT = .7278E-4
MEAN_MOTION_DDOT = 0

CCSDS_OMM_VERS = 2.0
CREATION_DATE  = 
ORIGINATOR     = 

OBJECT_NAME    = STARLINK-35785
OBJECT_ID      = 2025-303P
CENTER_NAME    = EARTH
REF_FRAME      = TEME
TIME_SYSTEM    = UTC
MEAN_ELEMENT_THEORY = SGP/SGP4

EPOCH          = 2026-01-15T22:00:01.999584
MEAN_MOTION    = 15.40701672
ECCENTRICITY   = .00016458
INCLINATION    = 42.9993
RA_OF_ASC_NODE = 252.1261
ARG_OF_PERICENTER = 273.7390
MEAN_ANOMALY   = 145.5805

EPHEMERIS_TYPE = 0
CLASSIFICATION_TYPE = U
NORAD_CAT_ID   = 67176
ELEMENT_SET_NO = 999
REV_AT_EPOCH   = 566
BSTAR          = .1800566E-3
MEAN_MOTION_DOT = .7225E-4
MEAN_MOTION_DDOT = 0

CCSDS_OMM_VERS = 2.0
CREATION_DATE  = 
ORIGINATOR     = 

OBJECT_NAME    = STARLINK-35853
OBJECT_ID      = 2025-303Q
CENTER_NAME    = EARTH
REF_FRAME      = TEME
TIME_SYSTEM    = UTC
MEAN_ELEMENT_THEORY = SGP/SGP4

EPOCH          = 2026-01-15T22:00:01.999584
MEAN_MOTION    = 15.40701286
ECCENTRICITY   = .00017615
INCLINATION    = 42.9991
RA_OF_ASC_NODE = 252.0658
ARG_OF_PERICENTER = 250.3967
MEAN_ANOMALY   = 193.8004

EPHEMERIS_TYPE = 0
CLASSIFICATION_TYPE = U
NORAD_CAT_ID   = 67177
ELEMENT_SET_NO = 999
REV_AT_EPOCH   = 571
BSTAR          = .14094341E-3
MEAN_MOTION_DOT = .5589E-4
MEAN_MOTION_DDOT = 0

CCSDS_OMM_VERS = 2.0
CREATION_DATE  = 
ORIGINATOR     = 

OBJECT_NAME    = STARLINK-35878
OBJECT_ID      = 2025-303R
CENTER_NAME    = EARTH
REF_FRAME      = TEME
TIME_SYSTEM    = UTC
MEAN_ELEMENT_THEORY = SGP/SGP4

EPOCH          = 2026-01-15T22:00:01.999584
MEAN_MOTION    = 15.40695563
ECCENTRICITY   = .00014379
INCLINATION    = 42.9990
RA_OF_ASC_NODE = 252.0048
ARG_OF_PERICENTER = 256.0173
MEAN_ANOMALY   = 213.0765

EPHEMERIS_TYPE = 0
CLASSIFICATION_TYPE = U
NORAD_CAT_ID   = 67178
ELEMENT_SET_NO = 999
REV_AT_EPOCH   = 566
BSTAR          = .14599539E-3
MEAN_MOTION_DOT = .5799E-4
MEAN_MOTION_DDOT = 0

CCSDS_OMM_VERS = 2.0
CREATION_DATE  = 
ORIGINATOR     = 

OBJECT_NAME    = STARLINK-35793
OBJECT_ID      = 2025-303S
CENTER_NAME    = EARTH
REF_FRAME      = TEME
TIME_SYSTEM    = UTC
MEAN_ELEMENT_THEORY = SGP/SGP4

EPOCH          = 2026-01-15T22:00:01.999584
MEAN_MOTION    = 15.40717878
ECCENTRICITY   = .00010232
INCLINATION    = 42.9992
RA_OF_ASC_NODE = 252.0357
ARG_OF_PERICENTER = 248.6561
MEAN_ANOMALY   = 207.9493

EPHEMERIS_TYPE = 0
CLASSIFICATION_TYPE = U
NORAD_CAT_ID   = 67179
ELEMENT_SET_NO = 999
REV_AT_EPOCH   = 566
BSTAR          = .24364649E-3
MEAN_MOTION_DOT = .9893E-4
MEAN_MOTION_DDOT = 0

CCSDS_OMM_VERS = 2.0
CREATION_DATE  = 
ORIGINATOR     = 

OBJECT_NAME    = STARLINK-35876
OBJECT_ID      = 2025-303T
CENTER_NAME    = EARTH
REF_FRAME      = TEME
TIME_SYSTEM    = UTC
MEAN_ELEMENT_THEORY = SGP/SGP4

EPOCH          = 2026-01-15T22:00:01.999584
MEAN_MOTION    = 15.40696253
ECCENTRICITY   = .00024119
INCLINATION    = 42.9989
RA_OF_ASC_NODE = 251.9754
ARG_OF_PERICENTER = 283.1918
MEAN_ANOMALY   = 198.2321

EPHEMERIS_TYPE = 0
CLASSIFICATION_TYPE = U
NORAD_CAT_ID   = 67180
ELEMENT_SET_NO = 999
REV_AT_EPOCH   = 571
BSTAR          = .41010664E-3
MEAN_MOTION_DOT = .16864E-3
MEAN_MOTION_DDOT = 0

CCSDS_OMM_VERS = 2.0
CREATION_DATE  = 
ORIGINATOR     = 

OBJECT_NAME    = STARLINK-35766
OBJECT_ID      = 2025-303U
CENTER_NAME    = EARTH
REF_FRAME      = TEME
TIME_SYSTEM    = UTC
MEAN_ELEMENT_THEORY = SGP/SGP4

EPOCH          = 2026-01-15T22:00:01.999584
MEAN_MOTION    = 15.40687117
ECCENTRICITY   = .00013625
INCLINATION    = 42.9986
RA_OF_ASC_NODE = 251.9447
ARG_OF_PERICENTER = 271.9697
MEAN_ANOMALY   = 222.0205

EPHEMERIS_TYPE = 0
CLASSIFICATION_TYPE = U
NORAD_CAT_ID   = 67181
ELEMENT_SET_NO = 999
REV_AT_EPOCH   = 566
BSTAR          = .21335181E-3
MEAN_MOTION_DOT = .8615E-4
MEAN_MOTION_DDOT = 0

CCSDS_OMM_VERS = 2.0
CREATION_DATE  = 
ORIGINATOR     = 

OBJECT_NAME    = STARLINK-35782
OBJECT_ID      = 2025-303V
CENTER_NAME    = EARTH
REF_FRAME      = TEME
TIME_SYSTEM    = UTC
MEAN_ELEMENT_THEORY = SGP/SGP4

EPOCH          = 2026-01-15T22:00:01.999584
MEAN_MOTION    = 15.40681237
ECCENTRICITY   = .00017842
INCLINATION    = 42.9987
RA_OF_ASC_NODE = 251.9142
ARG_OF_PERICENTER = 266.7554
MEAN_ANOMALY   = 239.6766

EPHEMERIS_TYPE = 0
CLASSIFICATION_TYPE = U
NORAD_CAT_ID   = 67182
ELEMENT_SET_NO = 999
REV_AT_EPOCH   = 566
BSTAR          = .34414234E-3
MEAN_MOTION_DOT = .1409E-3
MEAN_MOTION_DDOT = 0

CCSDS_OMM_VERS = 2.0
CREATION_DATE  = 
ORIGINATOR     = 

OBJECT_NAME    = STARLINK-35719
OBJECT_ID      = 2025-303W
CENTER_NAME    = EARTH
REF_FRAME      = TEME
TIME_SYSTEM    = UTC
MEAN_ELEMENT_THEORY = SGP/SGP4

EPOCH          = 2026-01-15T22:00:01.999584
MEAN_MOTION    = 15.41356081
ECCENTRICITY   = .0001573
INCLINATION    = 42.9993
RA_OF_ASC_NODE = 251.8552
ARG_OF_PERICENTER = 257.9470
MEAN_ANOMALY   = 273.0405

EPHEMERIS_TYPE = 0
CLASSIFICATION_TYPE = U
NORAD_CAT_ID   = 67183
ELEMENT_SET_NO = 999
REV_AT_EPOCH   = 566
BSTAR          = -.25474742E-1
MEAN_MOTION_DOT = -.991448E-2
MEAN_MOTION_DDOT = 0

